{
"type": "FeatureCollection",
"name": "buffer_angra_geojson",
"crs": { "type": "name", "properties": { "name": "urn:ogc:def:crs:OGC:1.3:CRS84" } },
"features": [
{ "type": "Feature", "properties": { "OBJECTID": 1, "CD_MUN": "3300100", "NM_MUN": "Angra dos Reis", "SIGLA_UF": "RJ", "AREA_KM2": 813.42, "VERSION": 1, "SOURCE": "IBGE, 2022", "CATEG_ID": 3, "LEVEL_1": "Brasil", "LEVEL_2": "Rio de Janeiro", "GEOCODE": 3300100, "LEVEL_3": "Angra dos Reis", "NAME": "[Angra dos Reis][RJ][3300100]", "ID_UF": 33, "NAME_STD": "LEVEL_3,LEVEL_4,GEOCODE", "LEVEL_4": "RJ", "FEATURE_ID": 3176.0, "CATEG_NAME": "POLITICAL_LEVEL_3", "Shape_Leng": 5.4917760126799999, "Shape_Area": 0.07163635266 }, "geometry": { "type": "MultiPolygon", "coordinates": [ [ [ [ -44.059877847612015, -23.270129923364006 ], [ -44.060378618082808, -23.271603822912677 ], [ -44.060392169067399, -23.271628794387961 ], [ -44.068271036000013, -23.283914694192742 ], [ -44.068467632295906, -23.28417694819252 ], [ -44.098285122246182, -23.310684251657168 ], [ -44.099458956051592, -23.311365519583379 ], [ -44.112387272444366, -23.316810593642533 ], [ -44.112362623590123, -23.316866115205809 ], [ -44.112728760977411, -23.317028662269703 ], [ -44.113449697724704, -23.317258059821267 ], [ -44.113660418691119, -23.317346810067868 ], [ -44.115328235377824, -23.318299262236334 ], [ -44.115674281011302, -23.318468063185772 ], [ -44.12973732722655, -23.324054193694799 ], [ -44.130198823327746, -23.324198153570656 ], [ -44.149717346870389, -23.32820722100853 ], [ -44.149839539555401, -23.328219825007 ], [ -44.182206404008369, -23.326273517751595 ], [ -44.1983059529652, -23.319735540654676 ], [ -44.20979248162562, -23.31533313610667 ], [ -44.210604409380323, -23.314741175496678 ], [ -44.212248992001008, -23.314073315574834 ], [ -44.212330522739052, -23.314023485938893 ], [ -44.225248086105282, -23.30463417376524 ], [ -44.226695271544585, -23.303394143562006 ], [ -44.226492490709276, -23.303157486848757 ], [ -44.226730039781195, -23.302984294477021 ], [ -44.228137503711174, -23.303260174723331 ], [ -44.2313310893595, -23.304246610684629 ], [ -44.232503079554689, -23.304490943894052 ], [ -44.234659905595414, -23.30451593778788 ], [ -44.23517903493088, -23.304595177816751 ], [ -44.235190192157702, -23.304522082894525 ], [ -44.268234981651901, -23.304905015010803 ], [ -44.268281237270216, -23.305236380830681 ], [ -44.26846452809643, -23.305210795118487 ], [ -44.269761872334939, -23.304922709040316 ], [ -44.271046872320539, -23.304937599973847 ], [ -44.27143559618105, -23.304865916812197 ], [ -44.272988028497394, -23.304503692265513 ], [ -44.273478679556611, -23.304978464133125 ], [ -44.274095225073786, -23.305436436690524 ], [ -44.303869089798248, -23.32059916621489 ], [ -44.315157114646411, -23.322136192757394 ], [ -44.318668971429048, -23.323753903903675 ], [ -44.320305525312932, -23.324222610768995 ], [ -44.345197688143642, -23.328052740267314 ], [ -44.37025735245885, -23.325542185194468 ], [ -44.370455239281853, -23.325496662411798 ], [ -44.397231679680054, -23.315104249714384 ], [ -44.419949603570309, -23.297529383109246 ], [ -44.424329244817315, -23.291447952348125 ], [ -44.441186649444177, -23.274798648893196 ], [ -44.455609456932173, -23.246739559738923 ], [ -44.456645036944799, -23.240239272600636 ], [ -44.461497912691023, -23.232869397664658 ], [ -44.462537079971298, -23.231646355345855 ], [ -44.463001164590324, -23.230586467073714 ], [ -44.46470656156982, -23.227996546558053 ], [ -44.464776544113484, -23.227867599964419 ], [ -44.468079944592915, -23.219754770517874 ], [ -44.468810991015616, -23.218716226249271 ], [ -44.469415000577399, -23.216476003207895 ], [ -44.472539288273396, -23.208803057291277 ], [ -44.474190928158862, -23.205031000057211 ], [ -44.475582062091327, -23.193602866464225 ], [ -44.477875656224029, -23.185096109702783 ], [ -44.477888110935027, -23.184955526781209 ], [ -44.477418196124376, -23.178519067173067 ], [ -44.477701836543382, -23.176188967586612 ], [ -44.477693893731065, -23.175866909570018 ], [ -44.476654626464239, -23.1680603943155 ], [ -44.476383800423136, -23.164350869025192 ], [ -44.48291307003965, -23.154652045494661 ], [ -44.484865570252381, -23.155073769909254 ], [ -44.485675159743366, -23.155196099291263 ], [ -44.501691678205653, -23.156312694708788 ], [ -44.502696864845696, -23.156301877663225 ], [ -44.503773008881723, -23.156289397903986 ], [ -44.532824300638865, -23.151622389088789 ], [ -44.55925975420741, -23.138702430936181 ], [ -44.559514916153553, -23.138527020869052 ], [ -44.578178283889621, -23.121907661191823 ], [ -44.58162421652478, -23.116791067894347 ], [ -44.582438513196728, -23.116145777482501 ], [ -44.584634964519275, -23.115198628114801 ], [ -44.585325831808952, -23.114888624610959 ], [ -44.597604285995729, -23.10831613244024 ], [ -44.597914288600251, -23.108121271835859 ], [ -44.610190047094761, -23.098033653835525 ], [ -44.610381729890044, -23.097924400954721 ], [ -44.610502559470042, -23.097776846448539 ], [ -44.617439150403953, -23.092076695244263 ], [ -44.632318330226539, -23.07164978470291 ], [ -44.63241576007907, -23.071472639843588 ], [ -44.633024416617559, -23.070273634819831 ], [ -44.633478538023603, -23.069719071443739 ], [ -44.633673398627927, -23.069364781725039 ], [ -44.634061709432046, -23.068230250387018 ], [ -44.635412426767466, -23.065569444549183 ], [ -44.635474427827951, -23.065436585904664 ], [ -44.638111615442391, -23.056397601807454 ], [ -44.638720088332377, -23.054619820827092 ], [ -44.642130510584764, -23.048268555582442 ], [ -44.643330175586861, -23.041150485424229 ], [ -44.644817934436666, -23.036803686363726 ], [ -44.646905484332443, -23.035788177213451 ], [ -44.660652473249129, -23.032055467665579 ], [ -44.660937345198434, -23.031927566983519 ], [ -44.669873627554402, -23.02736353931817 ], [ -44.670159290007739, -23.027199073101027 ], [ -44.69112907337729, -23.011092209059356 ], [ -44.692158816005822, -23.010057961726702 ], [ -44.706034467574064, -22.992596502203799 ], [ -44.706959463465928, -22.991120185924832 ], [ -44.707476916576361, -22.990285231330763 ], [ -44.707627259840088, -22.990039957430458 ], [ -44.709161391861961, -22.986477882334775 ], [ -44.709658149576086, -22.986115827093688 ], [ -44.71010664417841, -22.985671389333067 ], [ -44.72431975879455, -22.967955606787008 ], [ -44.724637625071026, -22.967451211225615 ], [ -44.739198103453873, -22.927052484367067 ], [ -44.739218847772676, -22.926893097553556 ], [ -44.739472549287754, -22.903209791759529 ], [ -44.739442084753463, -22.902928784197051 ], [ -44.734044792561235, -22.879645022875259 ], [ -44.734020786058522, -22.879578758128964 ], [ -44.733913572361971, -22.879282832276065 ], [ -44.727494291714692, -22.865115646164988 ], [ -44.72732348527714, -22.864805412434727 ], [ -44.723355287525806, -22.858211952298838 ], [ -44.722674460267399, -22.857173371133207 ], [ -44.7173577704989, -22.849992195858455 ], [ -44.717379234969073, -22.849976208939996 ], [ -44.716901372105994, -22.849334617303885 ], [ -44.716701057781705, -22.849105183575876 ], [ -44.715888943632095, -22.848008272846567 ], [ -44.71514436163524, -22.847114077835482 ], [ -44.71509243230598, -22.847157318563955 ], [ -44.713643074876046, -22.845225981943621 ], [ -44.713538120396009, -22.845104502420973 ], [ -44.712480862416513, -22.84390041676723 ], [ -44.711792434987515, -22.843128938745924 ], [ -44.711618680443543, -22.843283988391772 ], [ -44.706707988659716, -22.837659436442831 ], [ -44.705088075831029, -22.83607133623212 ], [ -44.702625902929746, -22.833738083961002 ], [ -44.702607530679636, -22.833721255846903 ], [ -44.702186410266322, -22.833335533823195 ], [ -44.702099801756759, -22.833256298849829 ], [ -44.701994748351268, -22.833160302516699 ], [ -44.681712716141035, -22.819631298621424 ], [ -44.675098866695834, -22.812934914373237 ], [ -44.674739719738767, -22.812607705039987 ], [ -44.667120530212706, -22.806325659104502 ], [ -44.666924599415175, -22.80617974680051 ], [ -44.640690740946518, -22.792159014858676 ], [ -44.640519669208906, -22.792098202701887 ], [ -44.613685899434969, -22.786886930134216 ], [ -44.612220779373729, -22.786107028006054 ], [ -44.611440289246218, -22.785805894515558 ], [ -44.575443998741491, -22.779102556138035 ], [ -44.575198175355467, -22.779102556138035 ], [ -44.573554934743093, -22.779298066348325 ], [ -44.573533889040782, -22.7792857016418 ], [ -44.572337876155125, -22.778744648814484 ], [ -44.572271501874283, -22.778891371077361 ], [ -44.571925641915321, -22.778732337240374 ], [ -44.571748545813414, -22.778641680157204 ], [ -44.553833559400516, -22.765372733724998 ], [ -44.553108408155822, -22.764966864289672 ], [ -44.547445875298273, -22.763291305050064 ], [ -44.547496992212487, -22.763194750853859 ], [ -44.547446051489096, -22.763167782242554 ], [ -44.547191352104747, -22.763018699915985 ], [ -44.547092920719372, -22.763186864807381 ], [ -44.542396480587719, -22.761797175095406 ], [ -44.531532827195996, -22.756979850889937 ], [ -44.531687589812066, -22.756487424788173 ], [ -44.530690911657871, -22.756174182825628 ], [ -44.530571655558617, -22.75655363373928 ], [ -44.516670821936032, -22.750389517500327 ], [ -44.515901694742581, -22.750219834316017 ], [ -44.501293831182117, -22.749481533084953 ], [ -44.48974928023047, -22.747413546032654 ], [ -44.489085490628227, -22.747384125611241 ], [ -44.458195577120797, -22.750850791129132 ], [ -44.457627144433765, -22.751006770444157 ], [ -44.449584422137001, -22.755186669058002 ], [ -44.444263963239095, -22.753455897102487 ], [ -44.44328157964074, -22.752984990561021 ], [ -44.442054706971959, -22.752585544377556 ], [ -44.441352394501003, -22.752356883959543 ], [ -44.440335120189552, -22.752177824759812 ], [ -44.436575728165629, -22.75095487568537 ], [ -44.434668101530015, -22.750592429115745 ], [ -44.431533420102866, -22.750628561836265 ], [ -44.413764014114548, -22.747500815878098 ], [ -44.385911166955708, -22.750487291176153 ], [ -44.384209287217772, -22.750917033115211 ], [ -44.381577886352794, -22.751848848757582 ], [ -44.380526547073323, -22.751191990162933 ], [ -44.378080093893459, -22.750481730954942 ], [ -44.37809070882566, -22.750457060968394 ], [ -44.377120455451127, -22.750039583084096 ], [ -44.368382908126272, -22.74766642447802 ], [ -44.360554578122851, -22.745393687965468 ], [ -44.360407268777259, -22.745320917669719 ], [ -44.359262111653969, -22.74490312502272 ], [ -44.358020480340549, -22.744657983600206 ], [ -44.354115631143593, -22.743524319927104 ], [ -44.352977110117699, -22.743358520914654 ], [ -44.3529597931282, -22.74347743450986 ], [ -44.349972554530702, -22.742666086574051 ], [ -44.348093800012592, -22.742698109916184 ], [ -44.328990082375526, -22.738926368283842 ], [ -44.298337048446726, -22.742463159019906 ], [ -44.29698693852707, -22.742836484688326 ], [ -44.295356330263282, -22.743577786427529 ], [ -44.294654070517574, -22.743528781082759 ], [ -44.286119692946635, -22.744291460229153 ], [ -44.273235774586695, -22.743461301278916 ], [ -44.247193988593985, -22.749691432007541 ], [ -44.24628488538211, -22.749688542702785 ], [ -44.244142278486308, -22.750046100557796 ], [ -44.231259097807452, -22.755380151377111 ], [ -44.230808665991567, -22.755514467823271 ], [ -44.230555364721909, -22.75567151948993 ], [ -44.207937571300917, -22.765036012819316 ], [ -44.207769682709802, -22.764741039886189 ], [ -44.205420202175802, -22.766078284536142 ], [ -44.202520901455685, -22.767278688207181 ], [ -44.201026440455124, -22.76834499367278 ], [ -44.193755771012178, -22.774548467588925 ], [ -44.190807041594809, -22.776029644627233 ], [ -44.17627783564317, -22.789438388304838 ], [ -44.163826216815622, -22.798625392227731 ], [ -44.162814251985324, -22.79957491083314 ], [ -44.141187446226716, -22.829017631014032 ], [ -44.135765479258353, -22.848906280102661 ], [ -44.123496342387256, -22.857435989993949 ], [ -44.104995221843957, -22.881243973749214 ], [ -44.103598624750283, -22.884977545940053 ], [ -44.102411492427251, -22.886903989872224 ], [ -44.101993975872091, -22.887666822710685 ], [ -44.099379130427678, -22.893750255860883 ], [ -44.099356652057295, -22.893739052938002 ], [ -44.098286722229581, -22.895885839022615 ], [ -44.097974384868479, -22.896501144902484 ], [ -44.097059222884042, -22.899147516523659 ], [ -44.094515499953737, -22.905065483274701 ], [ -44.093658037751602, -22.907731993825724 ], [ -44.094047274672242, -22.907857159633522 ], [ -44.089061852166864, -22.922273493421589 ], [ -44.088969651872034, -22.922737454564473 ], [ -44.088618581668094, -22.929222621364733 ], [ -44.083467447570747, -22.941191231126258 ], [ -44.083119114647879, -22.942240577618946 ], [ -44.077011462498263, -22.954416607601111 ], [ -44.076084317319612, -22.960091449424727 ], [ -44.076059330669587, -22.960155549193363 ], [ -44.075566393370373, -22.961640420722976 ], [ -44.075613475537928, -22.961656050732746 ], [ -44.069650972923199, -22.973388479473304 ], [ -44.069603848447997, -22.973511170382753 ], [ -44.068140436009287, -22.980834949748687 ], [ -44.066021126108083, -22.985296030963859 ], [ -44.06529947497858, -22.995052795125538 ], [ -44.062993221753771, -23.006594647124114 ], [ -44.062960061951259, -23.007790521514192 ], [ -44.06435447956801, -23.00782918662248 ], [ -44.063535894684932, -23.018896500624997 ], [ -44.04787132183084, -23.02884258648497 ], [ -44.047706896083199, -23.029006531095305 ], [ -44.041692512166016, -23.03556216685076 ], [ -44.041477978891898, -23.035817974510174 ], [ -44.026562840325447, -23.059814084800081 ], [ -44.019065427271435, -23.086628693027066 ], [ -44.007498225734658, -23.108803545457 ], [ -44.006753510019102, -23.11405275222522 ], [ -44.003299890771288, -23.118681461562932 ], [ -43.993546382294682, -23.14371113014532 ], [ -43.993510150408127, -23.143861229692774 ], [ -43.99317116992566, -23.145312892968473 ], [ -43.993006570608856, -23.146042289013263 ], [ -43.991827738491381, -23.152143059555147 ], [ -43.99173621448675, -23.152710912179419 ], [ -43.991852902823055, -23.161823185231722 ], [ -43.990816383624121, -23.166090169700379 ], [ -43.992137044647123, -23.184012017196313 ], [ -43.992176052769345, -23.187058188495087 ], [ -43.992407004832891, -23.187675474506737 ], [ -43.993098971264047, -23.197065709120704 ], [ -43.993126072333908, -23.197181723463313 ], [ -44.002684077818699, -23.222262768496815 ], [ -44.010602675809196, -23.233048109383077 ], [ -44.009889198473054, -23.233570222918868 ], [ -44.010175365446067, -23.233961275124184 ], [ -44.010300048842382, -23.234131280854697 ], [ -44.010529059402742, -23.234442847380265 ], [ -44.015596798533501, -23.239850237243846 ], [ -44.018568786364604, -23.243898163645309 ], [ -44.0186401412737, -23.243972057340539 ], [ -44.021420818059816, -23.246064595035232 ], [ -44.026783803060091, -23.251787018778995 ], [ -44.046672894797929, -23.264804737577567 ], [ -44.046961255217447, -23.264947752265943 ], [ -44.052385332168065, -23.266849017867649 ], [ -44.059877847612015, -23.270129923364006 ] ] ] ] } }
]
}
