{
"type": "FeatureCollection",
"name": "trechodrenagem",
"crs": { "type": "name", "properties": { "name": "urn:ogc:def:crs:OGC:1.3:CRS84" } },
"features": [
{ "type": "Feature", "properties": { "OBJECTID": 18800, "Shape_Leng": 0.14794626235, "TCD_AR_MON": 88.03, "TCD_AR_OTT": 88.03, "TCD_CD": 117971, "TCD_CD_OTT": "7739184", "TCD_CDA_CD": "7739184", "TCD_CLASSE": 0, "TCD_CR_LAT": -22.76, "TCD_CR_L_1": -22.8932, "TCD_CR_LON": -44.4562, "TCD_CR_L_2": -44.4313, "TCD_DI_FOZ": 0.0, "TCD_DI_F_1": 7.9, "TCD_DI_KM": 16.77, "TCD_DT_ATU": "07/12/2006", "TCD_HIN_CD": "7739184_0", "TCD_IC_DOM": null, "TCD_NU_NIV": 7, "TCD_NU_ORD": 0.0, "TCD_GM_LIN": null }, "geometry": { "type": "MultiLineString", "coordinates": [ [ [ -44.445321629192506, -22.877692536991994 ], [ -44.444046546981049, -22.87943842725744 ], [ -44.438587688582743, -22.883741433598409 ], [ -44.431633474413125, -22.893676862154976 ] ] ] } },
{ "type": "Feature", "properties": { "OBJECTID": 18805, "Shape_Leng": 0.13127518441, "TCD_AR_MON": 107.4, "TCD_AR_OTT": 107.4, "TCD_CD": 117976, "TCD_CD_OTT": "7739185", "TCD_CDA_CD": "773918", "TCD_CLASSE": 0, "TCD_CR_LAT": -22.8496, "TCD_CR_L_1": -22.8932, "TCD_CR_LON": -44.5047, "TCD_CR_L_2": -44.4313, "TCD_DI_FOZ": 7.9, "TCD_DI_F_1": 7.9, "TCD_DI_KM": 13.72, "TCD_DT_ATU": "07/12/2006", "TCD_HIN_CD": "773918_2", "TCD_IC_DOM": null, "TCD_NU_NIV": 7, "TCD_NU_ORD": 0.0, "TCD_GM_LIN": null }, "geometry": { "type": "MultiLineString", "coordinates": [ [ [ -44.510307559132968, -22.858058187342728 ], [ -44.510792730487388, -22.863660626756957 ], [ -44.514504470729662, -22.868713201519039 ], [ -44.51619822317064, -22.873903109578588 ], [ -44.514916485638452, -22.877288667834076 ], [ -44.51385218056744, -22.878507470415666 ], [ -44.499550779051987, -22.878175624708071 ], [ -44.492703353663181, -22.879882723806354 ], [ -44.489266298751829, -22.883907251357858 ], [ -44.488476661276323, -22.887506432139027 ], [ -44.488778032870528, -22.890531496400094 ], [ -44.486275585944277, -22.894700980180453 ], [ -44.486264149335319, -22.897724137184916 ], [ -44.483765513001174, -22.900310516730435 ], [ -44.480034713922379, -22.900730144090002 ], [ -44.462490776702914, -22.893327741839947 ], [ -44.447575198706197, -22.890831049441935 ], [ -44.431633474413125, -22.893676862154976 ] ] ] } },
{ "type": "Feature", "properties": { "OBJECTID": 18809, "Shape_Leng": 0.05125156909, "TCD_AR_MON": 23.74, "TCD_AR_OTT": 23.74, "TCD_CD": 117980, "TCD_CD_OTT": "7739182", "TCD_CDA_CD": "7739182", "TCD_CLASSE": 0, "TCD_CR_LAT": -22.8512, "TCD_CR_L_1": -22.9013, "TCD_CR_LON": -44.4118, "TCD_CR_L_2": -44.4125, "TCD_DI_FOZ": 0.0, "TCD_DI_F_1": 5.83, "TCD_DI_KM": 5.94, "TCD_DT_ATU": "07/12/2006", "TCD_HIN_CD": "7739182_0", "TCD_IC_DOM": null, "TCD_NU_NIV": 7, "TCD_NU_ORD": 0.0, "TCD_GM_LIN": null }, "geometry": { "type": "MultiLineString", "coordinates": [ [ [ -44.412201152102639, -22.851657878712849 ], [ -44.416294376345277, -22.860759767052624 ], [ -44.416271502671208, -22.865945865283496 ], [ -44.414196329271107, -22.878904439165744 ], [ -44.412918460406189, -22.901830849080891 ] ] ] } },
{ "type": "Feature", "properties": { "OBJECTID": 18810, "Shape_Leng": 0.02049429357, "TCD_AR_MON": 202.93, "TCD_AR_OTT": 7.49, "TCD_CD": 117981, "TCD_CD_OTT": "7739183", "TCD_CDA_CD": "773918", "TCD_CLASSE": 0, "TCD_CR_LAT": -22.8932, "TCD_CR_L_1": -22.9013, "TCD_CR_LON": -44.4313, "TCD_CR_L_2": -44.4125, "TCD_DI_FOZ": 5.83, "TCD_DI_F_1": 5.83, "TCD_DI_KM": 2.06, "TCD_DT_ATU": "07/12/2006", "TCD_HIN_CD": "773918_1", "TCD_IC_DOM": null, "TCD_NU_NIV": 7, "TCD_NU_ORD": 0.0, "TCD_GM_LIN": null }, "geometry": { "type": "MultiLineString", "coordinates": [ [ [ -44.431633474413125, -22.893676862154976 ], [ -44.428703771032424, -22.89555370639906 ], [ -44.417374055133685, -22.90052239304897 ], [ -44.412918460406189, -22.901830849080891 ] ] ] } },
{ "type": "Feature", "properties": { "OBJECTID": 18825, "Shape_Leng": 0.09730425665, "TCD_AR_MON": 98.37, "TCD_AR_OTT": 98.37, "TCD_CD": 117997, "TCD_CD_OTT": "7739163", "TCD_CDA_CD": "773916", "TCD_CLASSE": 0, "TCD_CR_LAT": -22.8463, "TCD_CR_L_1": -22.9178, "TCD_CR_LON": -44.2664, "TCD_CR_L_2": -44.3199, "TCD_DI_FOZ": 0.85, "TCD_DI_F_1": 0.85, "TCD_DI_KM": 10.57, "TCD_DT_ATU": "07/12/2006", "TCD_HIN_CD": "773916_1", "TCD_IC_DOM": null, "TCD_NU_NIV": 7, "TCD_NU_ORD": 0.0, "TCD_GM_LIN": null }, "geometry": { "type": "MultiLineString", "coordinates": [ [ [ -44.266540484126608, -22.849939831663171 ], [ -44.266501574123993, -22.850366948286723 ], [ -44.265235096397397, -22.854395285723143 ], [ -44.264552293066131, -22.866060670171368 ], [ -44.265162655800836, -22.86836666038144 ], [ -44.26809619019734, -22.872559020303719 ], [ -44.276137652766288, -22.881092506419932 ], [ -44.281863567923899, -22.886015376063256 ], [ -44.290057620599733, -22.895269843163195 ], [ -44.303237512503074, -22.902384245177743 ], [ -44.306640257024107, -22.906143633487218 ], [ -44.309417388736669, -22.910477137195965 ], [ -44.315616325836885, -22.914179298595855 ], [ -44.320312262408308, -22.918266748871595 ] ] ] } },
{ "type": "Feature", "properties": { "OBJECTID": 18826, "Shape_Leng": 0.14604122161, "TCD_AR_MON": 74.4, "TCD_AR_OTT": 74.4, "TCD_CD": 117998, "TCD_CD_OTT": "7739162", "TCD_CDA_CD": "7739162", "TCD_CLASSE": 0, "TCD_CR_LAT": -22.8377, "TCD_CR_L_1": -22.9178, "TCD_CR_LON": -44.4144, "TCD_CR_L_2": -44.3199, "TCD_DI_FOZ": 0.0, "TCD_DI_F_1": 0.85, "TCD_DI_KM": 15.51, "TCD_DT_ATU": "07/12/2006", "TCD_HIN_CD": "7739162_0", "TCD_IC_DOM": null, "TCD_NU_NIV": 7, "TCD_NU_ORD": 0.0, "TCD_GM_LIN": null }, "geometry": { "type": "MultiLineString", "coordinates": [ [ [ -44.360830682734999, -22.853309241452049 ], [ -44.360053879000084, -22.85392584921259 ], [ -44.355689841614698, -22.856212778257273 ], [ -44.344020607847305, -22.858904084144314 ], [ -44.33903095865309, -22.862486107988101 ], [ -44.336688724940132, -22.864925620697406 ], [ -44.333373758059864, -22.875139514540159 ], [ -44.333640814683818, -22.884359668489903 ], [ -44.335323124469696, -22.890417423546708 ], [ -44.335140034271888, -22.896177636084204 ], [ -44.33278636313517, -22.90135420289009 ], [ -44.324500807551452, -22.910252033260669 ], [ -44.320312262408308, -22.918266748871595 ] ] ] } },
{ "type": "Feature", "properties": { "OBJECTID": 18830, "Shape_Leng": 0.00762769834, "TCD_AR_MON": 174.87, "TCD_AR_OTT": 2.09, "TCD_CD": 118002, "TCD_CD_OTT": "7739161", "TCD_CDA_CD": "773916", "TCD_CLASSE": 0, "TCD_CR_LAT": -22.9178, "TCD_CR_L_1": -22.9242, "TCD_CR_LON": -44.3199, "TCD_CR_L_2": -44.324, "TCD_DI_FOZ": 0.0, "TCD_DI_F_1": 0.0, "TCD_DI_KM": 0.85, "TCD_DT_ATU": "07/12/2006", "TCD_HIN_CD": "773916_0", "TCD_IC_DOM": null, "TCD_NU_NIV": 7, "TCD_NU_ORD": 0.0, "TCD_GM_LIN": null }, "geometry": { "type": "MultiLineString", "coordinates": [ [ [ -44.320312262408308, -22.918266748871595 ], [ -44.324413109341556, -22.924698340333048 ] ] ] } },
{ "type": "Feature", "properties": { "OBJECTID": 18842, "Shape_Leng": 0.1170465722, "TCD_AR_MON": 408.14, "TCD_AR_OTT": 74.37, "TCD_CD": 118014, "TCD_CD_OTT": "773923", "TCD_CDA_CD": "77392", "TCD_CLASSE": 0, "TCD_CR_LAT": -22.8888, "TCD_CR_L_1": -22.9501, "TCD_CR_LON": -44.6285, "TCD_CR_L_2": -44.5703, "TCD_DI_FOZ": 11.48, "TCD_DI_F_1": 11.48, "TCD_DI_KM": 12.18, "TCD_DT_ATU": "07/12/2006", "TCD_HIN_CD": "77392_0", "TCD_IC_DOM": null, "TCD_NU_NIV": 6, "TCD_NU_ORD": 0.0, "TCD_GM_LIN": null }, "geometry": { "type": "MultiLineString", "coordinates": [ [ [ -44.640029883209273, -22.913755446289493 ], [ -44.636568142790033, -22.915553728674098 ], [ -44.635458957086243, -22.916449001570189 ] ], [ [ -44.623380776853146, -22.933988022283913 ], [ -44.621587777048177, -22.935254833499474 ], [ -44.615987766332076, -22.936538497236512 ], [ -44.604776304074647, -22.94097693887851 ], [ -44.587968638787473, -22.944105041734304 ], [ -44.577946782827127, -22.947864914052186 ] ], [ [ -44.576275936607388, -22.948491760862787 ], [ -44.570718474764696, -22.950576738635508 ] ] ] } },
{ "type": "Feature", "properties": { "OBJECTID": 18843, "Shape_Leng": 0.05317088555, "TCD_AR_MON": 247.03, "TCD_AR_OTT": 20.34, "TCD_CD": 118015, "TCD_CD_OTT": "7739181", "TCD_CDA_CD": "773918", "TCD_CLASSE": 0, "TCD_CR_LAT": -22.9013, "TCD_CR_L_1": -22.9417, "TCD_CR_LON": -44.4125, "TCD_CR_L_2": -44.4107, "TCD_DI_FOZ": 0.0, "TCD_DI_F_1": 0.0, "TCD_DI_KM": 5.83, "TCD_DT_ATU": "07/12/2006", "TCD_HIN_CD": "773918_0", "TCD_IC_DOM": null, "TCD_NU_NIV": 7, "TCD_NU_ORD": 0.0, "TCD_GM_LIN": null }, "geometry": { "type": "MultiLineString", "coordinates": [ [ [ -44.412918460406189, -22.901830849080891 ], [ -44.407692311839803, -22.910137392102918 ], [ -44.399578413350362, -22.917167921845813 ], [ -44.397701576768114, -22.919897351379575 ], [ -44.398285253509634, -22.928686442022617 ], [ -44.40027655894977, -22.93560822809977 ], [ -44.401359945041342, -22.937197051741116 ], [ -44.403374124298281, -22.93864472967628 ], [ -44.406483126666899, -22.939520198086765 ], [ -44.408951253945013, -22.939834906186988 ], [ -44.411045544404232, -22.942222909030455 ] ] ] } },
{ "type": "Feature", "properties": { "OBJECTID": 18902, "Shape_Leng": 0.09071562677, "TCD_AR_MON": 88.9, "TCD_AR_OTT": 88.9, "TCD_CD": 118082, "TCD_CD_OTT": "7739156", "TCD_CDA_CD": "7739156", "TCD_CLASSE": 0, "TCD_CR_LAT": -22.9333, "TCD_CR_L_1": -23.0067, "TCD_CR_LON": -44.1905, "TCD_CR_L_2": -44.2379, "TCD_DI_FOZ": 0.0, "TCD_DI_F_1": 0.0, "TCD_DI_KM": 10.04, "TCD_DT_ATU": "07/12/2006", "TCD_HIN_CD": "7739156_0", "TCD_IC_DOM": null, "TCD_NU_NIV": 7, "TCD_NU_ORD": 0.0, "TCD_GM_LIN": null }, "geometry": { "type": "MultiLineString", "coordinates": [ [ [ -44.190962100983946, -22.933810717316785 ], [ -44.205183966514412, -22.947028030470001 ], [ -44.207957285265103, -22.95208442160629 ], [ -44.209479376967842, -22.958140270054262 ], [ -44.212256507932054, -22.962187670820128 ], [ -44.221400419051292, -22.968424699558959 ], [ -44.226039138032604, -22.973488716209125 ], [ -44.227881661382447, -22.977530397178938 ], [ -44.23000649069413, -22.987624114514212 ], [ -44.233683913018432, -22.997723550116426 ], [ -44.238429326691218, -23.005318408619829 ] ] ] } },
{ "type": "Feature", "properties": { "OBJECTID": 18908, "Shape_Leng": 0.10463267451, "TCD_AR_MON": 628.61, "TCD_AR_OTT": 72.12, "TCD_CD": 118088, "TCD_CD_OTT": "773921", "TCD_CDA_CD": "77392", "TCD_CLASSE": 0, "TCD_CR_LAT": -22.9501, "TCD_CR_L_1": -23.0282, "TCD_CR_LON": -44.5703, "TCD_CR_L_2": -44.5281, "TCD_DI_FOZ": 0.0, "TCD_DI_F_1": 0.0, "TCD_DI_KM": 11.48, "TCD_DT_ATU": "07/12/2006", "TCD_HIN_CD": "77392_0", "TCD_IC_DOM": null, "TCD_NU_NIV": 6, "TCD_NU_ORD": 0.0, "TCD_GM_LIN": null }, "geometry": { "type": "MultiLineString", "coordinates": [ [ [ -44.570718474764696, -22.950576738635508 ], [ -44.568036728262008, -22.952121702184122 ], [ -44.567098310932735, -22.953992819594408 ], [ -44.56568053268068, -22.955624278162738 ] ], [ [ -44.559285510308662, -22.968714849520349 ], [ -44.552510859164592, -22.972740246376329 ], [ -44.551840245384625, -22.974044563319918 ] ], [ [ -44.545610278069063, -22.992926193562067 ], [ -44.545058315285971, -22.99420082522786 ] ], [ [ -44.547727717930371, -23.006751858644026 ], [ -44.547261447568907, -23.007821675066953 ] ], [ [ -44.54722124640994, -23.015436627107402 ], [ -44.547028951399888, -23.016418086248656 ] ], [ [ -44.545351277819961, -23.020339627500636 ], [ -44.543546398066198, -23.022348661731257 ], [ -44.537629764456945, -23.023773469719579 ], [ -44.534102143808276, -23.024035227272083 ] ] ] } },
{ "type": "Feature", "properties": { "OBJECTID": 18937, "Shape_Leng": 0.29476461722000002, "TCD_AR_MON": 148.34, "TCD_AR_OTT": 148.34, "TCD_CD": 118121, "TCD_CD_OTT": "773922", "TCD_CDA_CD": "773922", "TCD_CLASSE": 0, "TCD_CR_LAT": -23.0716, "TCD_CR_L_1": -22.9501, "TCD_CR_LON": -44.8035, "TCD_CR_L_2": -44.5703, "TCD_DI_FOZ": 0.0, "TCD_DI_F_1": 11.48, "TCD_DI_KM": 30.59, "TCD_DT_ATU": "07/12/2006", "TCD_HIN_CD": "773922_0", "TCD_IC_DOM": null, "TCD_NU_NIV": 6, "TCD_NU_ORD": 0.0, "TCD_GM_LIN": null }, "geometry": { "type": "MultiLineString", "coordinates": [ [ [ -44.575620610518648, -22.950564935614494 ], [ -44.570718474764696, -22.950576738635508 ] ] ] } }
]
}
